GOES 18                 
1 51850U 22021A   26094.71956521  .00000097  00000+0  00000+0 0  9997
2 51850   0.0483  37.2906 0000820  38.7033 239.0887  1.00274252  5855
GOES 19                 
1 60133U 24119A   26094.87438098 -.00000248  00000+0  00000+0 0  9991
2 60133   0.0448  39.8414 0000976  21.0955  11.8262  1.00271610  6222
