[{"OBJECT_NAME":"GOES 18","OBJECT_ID":"2022-021A","EPOCH":"2026-04-04T17:16:10.434144","MEAN_MOTION":1.00274252,"ECCENTRICITY":8.204e-5,"INCLINATION":0.0483,"RA_OF_ASC_NODE":37.2906,"ARG_OF_PERICENTER":38.7033,"MEAN_ANOMALY":239.0887,"EPHEMERIS_TYPE":0,"CLASSIFICATION_TYPE":"U","NORAD_CAT_ID":51850,"ELEMENT_SET_NO":999,"REV_AT_EPOCH":585,"BSTAR":0,"MEAN_MOTION_DOT":9.7e-7,"MEAN_MOTION_DDOT":0},{"OBJECT_NAME":"GOES 19","OBJECT_ID":"2024-119A","EPOCH":"2026-04-04T20:59:06.516672","MEAN_MOTION":1.0027161,"ECCENTRICITY":9.763e-5,"INCLINATION":0.0448,"RA_OF_ASC_NODE":39.8414,"ARG_OF_PERICENTER":21.0955,"MEAN_ANOMALY":11.8262,"EPHEMERIS_TYPE":0,"CLASSIFICATION_TYPE":"U","NORAD_CAT_ID":60133,"ELEMENT_SET_NO":999,"REV_AT_EPOCH":622,"BSTAR":0,"MEAN_MOTION_DOT":-2.48e-6,"MEAN_MOTION_DDOT":0}]
